[{"OBJECT_NAME":"STARLINK-6097","OBJECT_ID":"2023-090E","EPOCH":"2026-03-09T20:20:02.619456","MEAN_MOTION":15.02533387,"ECCENTRICITY":0.00012412,"INCLINATION":43.0042,"RA_OF_ASC_NODE":274.0947,"ARG_OF_PERICENTER":270.2312,"MEAN_ANOMALY":89.8388,"EPHEMERIS_TYPE":0,"CLASSIFICATION_TYPE":"U","NORAD_CAT_ID":57105,"ELEMENT_SET_NO":999,"REV_AT_EPOCH":15043,"BSTAR":-1.2087274e-5,"MEAN_MOTION_DOT":-3.67e-6,"MEAN_MOTION_DDOT":0},{"OBJECT_NAME":"THE ARAB SATELLITE 813","OBJECT_ID":"2025-292B","EPOCH":"2026-03-09T21:37:26.354208","MEAN_MOTION":15.05594469,"ECCENTRICITY":0.00142186,"INCLINATION":97.6379,"RA_OF_ASC_NODE":145.6178,"ARG_OF_PERICENTER":341.4344,"MEAN_ANOMALY":18.6363,"EPHEMERIS_TYPE":0,"CLASSIFICATION_TYPE":"U","NORAD_CAT_ID":66994,"ELEMENT_SET_NO":999,"REV_AT_EPOCH":1350,"BSTAR":0.00043840303,"MEAN_MOTION_DOT":6.274e-5,"MEAN_MOTION_DDOT":0}]
